$$SOE
2460147.500000000, A.D. 2023-Jul-22 00:00:00.0000, -3.734719526478718E+08, -8.335961873535924E+07, 3.568481454214640E+07,
2460154.500000000, A.D. 2023-Jul-29 00:00:00.0000, -3.691800368140464E+08, -9.366757400653692E+07, 3.780775477844021E+07,
2460161.500000000, A.D. 2023-Aug-05 00:00:00.0000, -3.645685734077414E+08, -1.038944332808924E+08, 3.989796107575559E+07,
2460168.500000000, A.D. 2023-Aug-12 00:00:00.0000, -3.596376378358374E+08, -1.140302271775625E+08, 4.195319499266873E+07,
2460175.500000000, A.D. 2023-Aug-19 00:00:00.0000, -3.543876298504677E+08, -1.240648293285256E+08, 4.397119738111731E+07,
2460182.500000000, A.D. 2023-Aug-26 00:00:00.0000, -3.488192886233966E+08, -1.339879643768121E+08, 4.594969089562742E+07,
2460189.500000000, A.D. 2023-Sep-02 00:00:00.0000, -3.429337079591787E+08, -1.437892171287068E+08, 4.788638274686005E+07,
2460196.500000000, A.D. 2023-Sep-09 00:00:00.0000, -3.367323515424941E+08, -1.534580429559133E+08, 4.977896770208722E+07,
2460203.500000000, A.D. 2023-Sep-16 00:00:00.0000, -3.302170679755486E+08, -1.629837795583129E+08, 5.162513132083136E+07,
2460210.500000000, A.D. 2023-Sep-23 00:00:00.0000, -3.233901051054736E+08, -1.723556598498470E+08, 5.342255341824104E+07,
2460217.500000000, A.D. 2023-Sep-30 00:00:00.0000, -3.162541238888793E+08, -1.815628248216842E+08, 5.516891189053904E+07,
2460224.500000000, A.D. 2023-Oct-07 00:00:00.0000, -3.088122140459804E+08, -1.905943369659256E+08, 5.686188707820125E+07,
2460231.500000000, A.D. 2023-Oct-14 00:00:00.0000, -3.010679103568704E+08, -1.994391976093939E+08, 5.849916630360593E+07,
2460238.500000000, A.D. 2023-Oct-21 00:00:00.0000, -2.930252062584532E+08, -2.080863665834881E+08, 6.007844841984892E+07,
2460245.500000000, A.D. 2023-Oct-28 00:00:00.0000, -2.846885660440952E+08, -2.165247819870479E+08, 6.159744868545271E+07,
2460252.500000000, A.D. 2023-Nov-04 00:00:00.0000, -2.760629367833627E+08, -2.247433808191569E+08, 6.305390401249108E+07,
2460259.500000000, A.D. 2023-Nov-11 00:00:00.0000, -2.671537596443938E+08, -2.327311210796821E+08, 6.444557851550398E+07,
2460266.500000000, A.D. 2023-Nov-18 00:00:00.0000, -2.579669802557033E+08, -2.404770053898157E+08, 6.577026932622577E+07,
2460273.500000000, A.D. 2023-Nov-25 00:00:00.0000, -2.485090578878697E+08, -2.479701060843924E+08, 6.702581265723055E+07,
2460280.500000000, A.D. 2023-Dec-02 00:00:00.0000, -2.387869732764308E+08, -2.551995917457645E+08, 6.821009009546080E+07,
2460287.500000000, A.D. 2023-Dec-09 00:00:00.0000, -2.288082348545979E+08, -2.621547551807555E+08, 6.932103509417033E+07,
2460294.500000000, A.D. 2023-Dec-16 00:00:00.0000, -2.185808829536887E+08, -2.688250427544571E+08, 7.035663961446857E+07,
2460301.500000000, A.D. 2023-Dec-23 00:00:00.0000, -2.081134914694419E+08, -2.752000843024463E+08, 7.131496091327097E+07,
2460308.500000000, A.D. 2023-Dec-30 00:00:00.0000, -1.974151681836731E+08, -2.812697224626588E+08, 7.219412865465514E+07,
2460315.500000000, A.D. 2024-Jan-06 00:00:00.0000, -1.864955553673763E+08, -2.870240436604611E+08, 7.299235227845365E+07,
2460322.500000000, A.D. 2024-Jan-13 00:00:00.0000, -1.753648273554057E+08, -2.924534124113220E+08, 7.370792814899594E+07,
2460329.500000000, A.D. 2024-Jan-20 00:00:00.0000, -1.640336837452561E+08, -2.975485056960011E+08, 7.433924658319578E+07,
2460336.500000000, A.D. 2024-Jan-27 00:00:00.0000, -1.525133401383640E+08, -3.023003465740979E+08, 7.488479895287189E+07,
2460343.500000000, A.D. 2024-Feb-03 00:00:00.0000, -1.408155167569797E+08, -3.067003377815192E+08, 7.534318477374747E+07,
2460350.500000000, A.D. 2024-Feb-10 00:00:00.0000, -1.289524245799300E+08, -3.107402953805943E+08, 7.571311867715172E+07,
2460357.500000000, A.D. 2024-Feb-17 00:00:00.0000, -1.169367487957709E+08, -3.144124822177710E+08, 7.599343719312355E+07,
2460364.500000000, A.D. 2024-Feb-24 00:00:00.0000, -1.047816294943240E+08, -3.177096409286370E+08, 7.618310528239065E+07,
2460371.500000000, A.D. 2024-Mar-02 00:00:00.0000, -9.250063954984272E+07, -3.206250262730771E+08, 7.628122255353895E+07,
2460378.500000000, A.D. 2024-Mar-09 00:00:00.0000, -8.010775957061318E+07, -3.231524366098141E+08, 7.628702909221023E+07,
2460385.500000000, A.D. 2024-Mar-16 00:00:00.0000, -6.761734956644419E+07, -3.252862440543821E+08, 7.619991082865188E+07,
2460392.500000000, A.D. 2024-Mar-23 00:00:00.0000, -5.504411751648699E+07, -3.270214219479098E+08, 7.601940449023098E+07,
2460399.500000000, A.D. 2024-Mar-30 00:00:00.0000, -4.240308718702225E+07, -3.283535693977178E+08, 7.574520228809370E+07,
2460406.500000000, A.D. 2024-Apr-06 00:00:00.0000, -2.970956507927281E+07, -3.292789359961623E+08, 7.537715598603693E+07,
2460413.500000000, A.D. 2024-Apr-13 00:00:00.0000, -1.697910312125508E+07, -3.297944456334678E+08, 7.491528004552226E+07,
2460420.500000000, A.D. 2024-Apr-20 00:00:00.0000, -4.227458251754345E+06, -3.298977164958386E+08, 7.435975410976514E+07,
2460427.500000000, A.D. 2024-Apr-27 00:00:00.0000, 8.529449361932661E+06, -3.295870775950947E+08, 7.371092488210632E+07,
2460434.500000000, A.D. 2024-May-04 00:00:00.0000, 2.127557930957372E+07, -3.288615823393843E+08, 7.296930730096072E+07,
2460441.500000000, A.D. 2024-May-11 00:00:00.0000, 3.399481509048549E+07, -3.277210190779544E+08, 7.213558495559162E+07,
2460448.500000000, A.D. 2024-May-18 00:00:00.0000, 4.667100921993051E+07, -3.261659184573701E+08, 7.121060971825019E+07,
2460455.500000000, A.D. 2024-May-25 00:00:00.0000, 5.928802900367443E+07, -3.241975574866685E+08, 7.019540057896981E+07,
2460462.500000000, A.D. 2024-Jun-01 00:00:00.0000, 7.182980271828449E+07, -3.218179602945342E+08, 6.909114167133138E+07,
2460469.500000000, A.D. 2024-Jun-08 00:00:00.0000, 8.428036611208452E+07, -3.190298955641894E+08, 6.789917947278777E+07,
2460476.500000000, A.D. 2024-Jun-15 00:00:00.0000, 9.662390928960513E+07, -3.158368701003470E+08, 6.662101920387445E+07,
2460483.500000000, A.D. 2024-Jun-22 00:00:00.0000, 1.088448226375167E+08, -3.122431173882018E+08, 6.525832063821816E+07,
2460490.500000000, A.D. 2024-Jun-29 00:00:00.0000, 1.209277393388678E+08, -3.082535830341135E+08, 6.381289339911480E+07,
2460497.500000000, A.D. 2024-Jul-06 00:00:00.0000, 1.328575768009045E+08, -3.038739096618426E+08, 6.228669133475011E+07,
2460504.500000000, A.D. 2024-Jul-13 00:00:00.0000, 1.446195786420611E+08, -2.991104185791265E+08, 6.068180606848953E+07,
2460511.500000000, A.D. 2024-Jul-20 00:00:00.0000, 1.561993549668215E+08, -2.939700872368392E+08, 5.900046005087370E+07,
2460518.500000000, A.D. 2024-Jul-27 00:00:00.0000, 1.675829200095277E+08, -2.884605236374878E+08, 5.724499915022668E+07,
2460525.500000000, A.D. 2024-Aug-03 00:00:00.0000, 1.787567271849430E+08, -2.825899382893386E+08, 5.541788478596671E+07,
2460532.500000000, A.D. 2024-Aug-10 00:00:00.0000, 1.897077015069263E+08, -2.763671139542611E+08, 5.352168565346389E+07,
2460539.500000000, A.D. 2024-Aug-17 00:00:00.0000, 2.004232692498104E+08, -2.698013734305381E+08, 5.155906910597572E+07,
2460546.500000000, A.D. 2024-Aug-24 00:00:00.0000, 2.108913847395380E+08, -2.629025456703781E+08, 4.953279225917415E+07,
2460553.500000000, A.D. 2024-Aug-31 00:00:00.0000, 2.211005542829131E+08, -2.556809305803810E+08, 4.744569287295310E+07,
2460560.500000000, A.D. 2024-Sep-07 00:00:00.0000, 2.310398575283342E+08, -2.481472626718253E+08, 4.530068005790327E+07,
2460567.500000000, A.D. 2024-Sep-14 00:00:00.0000, 2.406989663043453E+08, -2.403126728622733E+08, 4.310072494982841E+07,
2460574.500000000, A.D. 2024-Sep-21 00:00:00.0000, 2.500681588975526E+08, -2.321886483105703E+08, 4.084885163831782E+07,
2460581.500000000, A.D. 2024-Sep-28 00:00:00.0000, 2.591383293008866E+08, -2.237869937958676E+08, 3.854812819124067E+07,
2460588.500000000, A.D. 2024-Oct-05 00:00:00.0000, 2.679009951514617E+08, -2.151197949079953E+08, 3.620165749582170E+07,
2460595.500000000, A.D. 2024-Oct-12 00:00:00.0000, 2.763483040777109E+08, -2.061993803272170E+08, 3.381256824756196E+07,
2460602.500000000, A.D. 2024-Oct-19 00:00:00.0000, 2.844730368099771E+08, -1.970382837090823E+08, 3.138400627616933E+07,
2460609.500000000, A.D. 2024-Oct-26 00:00:00.0000, 2.922686071478143E+08, -1.876492062032587E+08, 2.891912619146228E+07,
2460616.500000000, A.D. 2024-Nov-02 00:00:00.0000, 2.997290591842098E+08, -1.780449799630210E+08, 2.642108335340036E+07,
2460623.500000000, A.D. 2024-Nov-09 00:00:00.0000, 3.068490620392824E+08, -1.682385328121892E+08, 2.389302619294066E+07,
2460630.500000000, A.D. 2024-Nov-16 00:00:00.0000, 3.136239022945736E+08, -1.582428542334674E+08, 2.133808890897659E+07,
2460637.500000000, A.D. 2024-Nov-23 00:00:00.0000, 3.200494743475407E+08, -1.480709628666118E+08, 1.875938455475278E+07,
2460644.500000000, A.D. 2024-Nov-30 00:00:00.0000, 3.261222690753767E+08, -1.377358756712062E+08, 1.615999850833701E+07,
2460651.500000000, A.D. 2024-Dec-07 00:00:00.0000, 3.318393614194173E+08, -1.272505784224347E+08, 1.354298233738762E+07,
2460658.500000000, A.D. 2024-Dec-14 00:00:00.0000, 3.371983964038864E+08, -1.166279963906775E+08, 1.091134823336875E+07,
2460665.500000000, A.D. 2024-Dec-21 00:00:00.0000, 3.421975714706813E+08, -1.058809665102699E+08, 8.268064133280568E+06,
2460672.500000000, A.D. 2024-Dec-28 00:00:00.0000, 3.468356172884862E+08, -9.502221404950950E+07, 5.616049105306413E+06,
2460679.500000000, A.D. 2025-Jan-04 00:00:00.0000, 3.511117798099074E+08, -8.406433142604063E+07, 2.958168949575815E+06,
2460686.500000000, A.D. 2025-Jan-11 00:00:00.0000, 3.550258019281973E+08, -7.301975751014502E+07, 2.972323092359863E+05,
2460693.500000000, A.D. 2025-Jan-18 00:00:00.0000, 3.585779039827001E+08, -6.190075832270612E+07, -2.364012709383745E+06,
2460700.500000000, A.D. 2025-Jan-25 00:00:00.0000, 3.617687635134521E+08, -5.071940957684470E+07, -5.022881481375970E+06,
2460707.500000000, A.D. 2025-Feb-01 00:00:00.0000, 3.645994946017443E+08, -3.948758105589227E+07, -7.676755407293882E+06,
2460714.500000000, A.D. 2025-Feb-08 00:00:00.0000, 3.670716269923888E+08, -2.821692276045303E+07, -1.032308407693310E+07,
$$EOE